NORAD_CAT_ID,OBJECT_NAME,OBJECT_TYPE,EPOCH,MEAN_MOTION,ECCENTRICITY,INCLINATION,RA_OF_ASC_NODE,ARG_OF_PERICENTER,MEAN_ANOMALY,BSTAR,MEAN_MOTION_DOT,MEAN_MOTION_DDOT,TLE_LINE0,TLE_LINE1,TLE_LINE2,SEMIMAJOR_AXIS,PERIOD,APOGEE,PERIGEE,DECAYED
52550.0,STARLINK-3965,PAYLOAD,2022-12-04 00:10:06,15.08840964,0.0002558,53.2198,78.7974,35.8036,324.3127,6.1413e-05,6.89e-06,0.0,0 STARLINK-3965,1 52550U 22051T   22338.00702078  .00000689  00000-0  61413-4 0  9991,2 52550  53.2198  78.7974 0002558  35.8036 324.3127 15.08840964 31612,6917.877,95.437,541.512,537.9730000000002,0.0
52550.0,STARLINK-3965,PAYLOAD,2022-12-04 12:53:11,15.08838664,0.0002407,53.2198,76.418,35.8571,324.2582,3.3674e-05,2.48e-06,0.0,0 STARLINK-3965,1 52550U 22051T   22338.53694299  .00000248  00000-0  33674-4 0  9993,2 52550  53.2198  76.4180 0002407  35.8571 324.2582 15.08838664 31622,6917.884,95.438,541.415,538.0840000000002,0.0
52550.0,STARLINK-3965,PAYLOAD,2022-12-04 14:28:34,15.088393300000002,0.0002451,53.2197,76.1217,36.2501,323.8657,2.1003e-05,4.6e-07,0.0,0 STARLINK-3965,1 52550U 22051T   22338.60318281  .00000046  00000-0  21003-4 0  9994,2 52550  53.2197  76.1217 0002451  36.2501 323.8657 15.08839330 31636,6917.882,95.438,541.443,538.052,0.0
52550.0,STARLINK-3965,PAYLOAD,2022-12-05 12:43:58,15.08841551,0.0002454,53.2204,71.9584,37.5747,322.5416,0.00018267,2.62e-05,0.0,0 STARLINK-3965,1 52550U 22051T   22339.53053605  .00002620  00000-0  18267-3 0  9990,2 52550  53.2204  71.9584 0002454  37.5747 322.5416 15.08841551 31844,6917.876,95.437,541.438,538.043,0.0
52550.0,STARLINK-3965,PAYLOAD,2022-12-05 17:30:08,15.08840973,0.0002395,53.2202,71.0653,36.8192,323.2964,5.1876e-05,5.37e-06,0.0,0 STARLINK-3965,1 52550U 22051T   22339.72925930  .00000537  00000-0  51876-4 0  9999,2 52550  53.2202  71.0653 0002395  36.8192 323.2964 15.08840973 31809,6917.877,95.437,541.399,538.086,0.0
52550.0,STARLINK-3965,PAYLOAD,2022-12-06 12:34:46,15.08829829,0.0002557,53.2204,67.502,26.3236,333.7886,3.4487e-05,2.6e-06,0.0,0 STARLINK-3965,1 52550U 22051T   22340.52414721  .00000260  00000-0  34487-4 0  9992,2 52550  53.2204  67.5020 0002557  26.3236 333.7886 15.08829829 31998,6917.911,95.438,541.545,538.008,0.0
52550.0,STARLINK-3965,PAYLOAD,2022-12-06 17:20:55,15.08833495,0.0002493,53.2201,66.6079,28.9304,331.1826,-5.6133e-05,-1.182e-05,0.0,0 STARLINK-3965,1 52550U 22051T   22340.72286794 -.00001182  00000-0 -56133-4 0  9999,2 52550  53.2201  66.6079 0002493  28.9304 331.1826 15.08833495 31958,6917.9,95.438,541.49,538.0409999999998,0.0
52550.0,STARLINK-3965,PAYLOAD,2022-12-07 15:36:19,15.08832949,0.0002446,53.2194,62.4443,30.8407,329.2728,-2.3691e-05,-6.65e-06,0.0,0 STARLINK-3965,1 52550U 22051T   22341.65022986 -.00000665  00000-0 -23691-4 0  9991,2 52550  53.2194  62.4443 0002446  30.8407 329.2728 15.08832949 32168,6917.901999999999,95.438,541.4590000000002,538.075,0.0
52550.0,STARLINK-3965,PAYLOAD,2022-12-08 05:54:47,15.08842996,0.0002383,53.2207,59.768,26.3522,333.7591,6.192e-05,6.97e-06,0.0,0 STARLINK-3965,1 52550U 22051T   22342.24638175  .00000697  00000-0  61920-4 0  9990,2 52550  53.2207  59.7680 0002383  26.3522 333.7591 15.08842996 32254,6917.871,95.437,541.385,538.0880000000002,0.0
52550.0,STARLINK-3965,PAYLOAD,2022-12-08 12:16:19,15.08840714,0.0002442,53.2206,58.5798,26.1041,334.0074,0.00012153,1.646e-05,0.0,0 STARLINK-3965,1 52550U 22051T   22342.51134237  .00001646  00000-0  12153-3 0  9998,2 52550  53.2206  58.5798 0002442  26.1041 334.0074 15.08840714 32223,6917.878000000002,95.438,541.433,538.054,0.0
52550.0,STARLINK-3965,PAYLOAD,2022-12-08 21:48:39,15.08830054,0.0002502,53.2198,56.79600000000001,32.0011,328.1133,9.721e-05,1.259e-05,0.0,0 STARLINK-3965,1 52550U 22051T   22342.90879227  .00001259  00000-0  97210-4 0  9994,2 52550  53.2198  56.7960 0002502  32.0011 328.1133 15.08830054 32354,6917.911,95.438,541.507,538.045,0.0
52550.0,STARLINK-3965,PAYLOAD,2022-12-09 13:42:31,15.08820508,0.0001768,53.2204,53.8237,13.1787,346.9251,4.3113e-05,3.98e-06,0.0,0 STARLINK-3965,1 52550U 22051T   22343.57120180  .00000398  00000-0  43113-4 0  9991,2 52550  53.2204  53.8237 0001768  13.1787 346.9251 15.08820508 32453,6917.94,95.439,541.028,538.582,0.0
52550.0,STARLINK-3965,PAYLOAD,2022-12-10 11:57:55,15.08837077,0.0002797,53.2194,49.6588,24.4518,335.6606,9.9566e-05,1.296e-05,0.0,0 STARLINK-3965,1 52550U 22051T   22344.49856238  .00001296  00000-0  99566-4 0  9994,2 52550  53.2194  49.6588 0002797  24.4518 335.6606 15.08837077 32596,6917.889,95.438,541.689,537.819,0.0
52550.0,STARLINK-3965,PAYLOAD,2022-12-10 16:44:04,15.08849056,0.0003069,53.2196,48.7674,22.5586,337.5541,0.00015821,2.231e-05,0.0,0 STARLINK-3965,1 52550U 22051T   22344.69727346  .00002231  00000-0  15821-3 0  9994,2 52550  53.2196  48.7674 0003069  22.5586 337.5541 15.08849056 32624,6917.853,95.437,541.841,537.595,0.0
52550.0,STARLINK-3965,PAYLOAD,2022-12-11 03:51:44,15.088874,0.0002291,53.2185,46.6828,336.2151,23.8735,-0.00045137,-7.474e-05,0.0,0 STARLINK-3965,1 52550U 22051T   22345.16093445 -.00007474  00000-0 -45137-3 0  9992,2 52550  53.2185  46.6828 0002291 336.2151  23.8735 15.08887400 32691,6917.736,95.435,541.185,538.016,0.0
52550.0,STARLINK-3965,PAYLOAD,2022-12-11 13:24:05,15.08841398,0.0002946,53.2189,44.9013,25.4631,334.6506,0.00028904,4.315e-05,0.0,0 STARLINK-3965,1 52550U 22051T   22345.55839718  .00004315  00000-0  28904-3 0  9998,2 52550  53.2189  44.9013 0002946  25.4631 334.6506 15.08841398 32751,6917.876,95.437,541.779,537.703,0.0
52550.0,STARLINK-3965,PAYLOAD,2022-12-12 10:04:06,15.08848973,0.0003029,53.2188,41.0353,27.1084,333.0066,9.4652e-05,1.218e-05,0.0,0 STARLINK-3965,1 52550U 22051T   22346.41951811  .00001218  00000-0  94652-4 0  9996,2 52550  53.2188  41.0353 0003029  27.1084 333.0066 15.08848973 32816,6917.853,95.437,541.813,537.623,0.0
52550.0,STARLINK-3965,PAYLOAD,2022-12-13 03:33:22,15.08790601,0.0002735,53.2195,37.7659,30.4719,329.6432,0.0007457,0.00011584,0.0,0 STARLINK-3965,1 52550U 22051T   22347.14817873  .00011584  00000-0  74570-3 0  9999,2 52550  53.2195  37.7659 0002735  30.4719 329.6432 15.08790601 32991,6918.031,95.441,541.788,538.004,0.0
52550.0,STARLINK-3965,PAYLOAD,2022-12-13 09:54:53,15.08849702,0.0003186,53.2189,36.5775,29.4228,330.6943,-6.4242e-05,-1.311e-05,0.0,0 STARLINK-3965,1 52550U 22051T   22347.41311599 -.00001311  00000-0 -64242-4 0  9998,2 52550  53.2189  36.5775 0003186  29.4228 330.6943 15.08849702 33036,6917.851,95.437,541.92,537.512,0.0
52550.0,STARLINK-3965,PAYLOAD,2022-12-13 13:05:39,15.0885192,0.0002719,53.2192,35.9798,35.1113,325.0058,-3.3268e-05,-8.18e-06,0.0,0 STARLINK-3965,1 52550U 22051T   22347.54559208 -.00000818  00000-0 -33268-4 0  9998,2 52550  53.2192  35.9798 0002719  35.1113 325.0058 15.08851920 32989,6917.844,95.437,541.59,537.828,0.0
52550.0,STARLINK-3965,PAYLOAD,2022-12-13 14:41:02,15.08852447,0.0002805,53.2198,35.6818,33.1779,326.9389,-3.8312e-05,-8.99e-06,0.0,0 STARLINK-3965,1 52550U 22051T   22347.61183050 -.00000899  00000-0 -38312-4 0  9998,2 52550  53.2198  35.6818 0002805  33.1779 326.9389 15.08852447 32990,6917.842,95.437,541.648,537.7669999999998,0.0
52550.0,STARLINK-3965,PAYLOAD,2022-12-14 03:24:07,15.08838908,0.0002989,53.218,33.3048,30.0526,330.0637,1.3415999999999997e-05,-7.5e-07,0.0,0 STARLINK-3965,1 52550U 22051T   22348.14175607 -.00000075  00000-0  13416-4 0  9999,2 52550  53.2180  33.3048 0002989  30.0526 330.0637 15.08838908 33146,6917.884,95.438,541.816,537.681,0.0
52550.0,STARLINK-3965,PAYLOAD,2022-12-14 09:45:40,15.08843456,0.000254,53.2186,32.1143,34.5893,325.5264,-8.5385e-05,-1.647e-05,0.0,0 STARLINK-3965,1 52550U 22051T   22348.40671610 -.00001647  00000-0 -85385-4 0  9994,2 52550  53.2186  32.1143 0002540  34.5893 325.5264 15.08843456 33110,6917.87,95.437,541.492,537.9780000000002,0.0
52550.0,STARLINK-3965,PAYLOAD,2022-12-15 12:47:14,15.08830688,0.000288,53.2181,27.0581,28.5307,331.5842,-4.1303e-05,-9.46e-06,0.0,0 STARLINK-3965,1 52550U 22051T   22349.53280579 -.00000946  00000-0 -41303-4 0  9992,2 52550  53.2181  27.0581 0002880  28.5307 331.5842 15.08830688 33352,6917.909000000002,95.438,541.766,537.781,0.0
52550.0,STARLINK-3965,PAYLOAD,2022-12-15 19:08:46,15.08839469,0.0002898,53.2191,25.87,31.4213,328.6952,8.250499999999998e-07,-2.75e-06,0.0,0 STARLINK-3965,1 52550U 22051T   22349.79775961 -.00000275  00000-0  82505-6 0  9999,2 52550  53.2191  25.8700 0002898  31.4213 328.6952 15.08839469 33322,6917.882,95.438,541.752,537.742,0.0
52550.0,STARLINK-3965,PAYLOAD,2022-12-16 12:38:00,15.08837709,0.0002866,53.2182,22.5989,22.5721,337.5397,9.27e-05,1.187e-05,0.0,0 STARLINK-3965,1 52550U 22051T   22350.52639722  .00001187  00000-0  92700-4 0  9994,2 52550  53.2182  22.5989 0002866  22.5721 337.5397 15.08837709 33434,6917.887,95.438,541.735,537.77,0.0
52550.0,STARLINK-3965,PAYLOAD,2022-12-16 18:59:33,15.0883481,0.0002872,53.2179,21.4093,25.0907,335.0224,2.8093e-05,1.59e-06,0.0,0 STARLINK-3965,1 52550U 22051T   22350.79136180  .00000159  00000-0  28093-4 0  9995,2 52550  53.2179  21.4093 0002872  25.0907 335.0224 15.08834810 33471,6917.896,95.438,541.748,537.774,0.0
52550.0,STARLINK-3965,PAYLOAD,2022-12-17 02:56:29,15.08833832,0.0002735,53.2186,19.9219,19.9784,340.1315,0.00010749,1.422e-05,0.0,0 STARLINK-3965,1 52550U 22051T   22351.12255975  .00001422  00000-0  10749-3 0  9999,2 52550  53.2186  19.9219 0002735  19.9784 340.1315 15.08833832 33598,6917.899,95.438,541.656,537.872,0.0
52550.0,STARLINK-3965,PAYLOAD,2022-12-17 09:18:02,15.08832636,0.0002844,53.2186,18.7323,22.3149,337.7966,9.9364e-05,1.293e-05,0.0,0 STARLINK-3965,1 52550U 22051T   22351.38752318  .00001293  00000-0  99364-4 0  9997,2 52550  53.2186  18.7323 0002844  22.3149 337.7966 15.08832636 33567,6917.903,95.438,541.735,537.8,0.0
